{
  "norad_id": 62093,
  "name": "STARLINK-11345 [DTC]",
  "history": [
    {
      "epoch": "2026-04-14T07:11:23.174592Z",
      "apogee_km": 359.3581697934087,
      "perigee_km": 353.65392713136134,
      "latitude_deg": -8.636784889033955e-06,
      "longitude_deg": -121.89415660755051,
      "height_km": 354.9835056135204,
      "semi_major_axis_km": 6734.643048462385,
      "eccentricity": 0.0004235,
      "inclination_deg": 42.9998,
      "raan_deg": 188.4304,
      "arg_perigee_deg": 297.0432,
      "mean_anomaly_deg": 63.0003,
      "mean_motion_rev_day": 15.70836156
    },
    {
      "epoch": "2026-04-15T06:04:46.557696Z",
      "apogee_km": 357.26684522394225,
      "perigee_km": 355.5118276606663,
      "latitude_deg": -1.3673808180193965e-05,
      "longitude_deg": -111.9304418742503,
      "height_km": 356.300767541971,
      "semi_major_axis_km": 6734.5263364423045,
      "eccentricity": 0.0001303,
      "inclination_deg": 42.9995,
      "raan_deg": 182.6816,
      "arg_perigee_deg": 260.8753,
      "mean_anomaly_deg": 99.1967,
      "mean_motion_rev_day": 15.70876991
    },
    {
      "epoch": "2026-04-16T11:04:24.920256Z",
      "apogee_km": 357.00082102832584,
      "perigee_km": 355.81015391654,
      "latitude_deg": -4.804424497042013e-05,
      "longitude_deg": 164.6866389975928,
      "height_km": 356.6650559132262,
      "semi_major_axis_km": 6734.542487472432,
      "eccentricity": 8.84e-05,
      "inclination_deg": 42.9982,
      "raan_deg": 175.3993,
      "arg_perigee_deg": 214.9121,
      "mean_anomaly_deg": 145.1688,
      "mean_motion_rev_day": 15.7087134
    },
    {
      "epoch": "2026-04-17T20:38:43.901376Z",
      "apogee_km": 357.65522323873756,
      "perigee_km": 354.8185702659466,
      "latitude_deg": -2.7190795377271678e-06,
      "longitude_deg": 11.296650795503309,
      "height_km": 355.3041447839594,
      "semi_major_axis_km": 6734.373896752341,
      "eccentricity": 0.00021061,
      "inclination_deg": 42.9967,
      "raan_deg": 166.9671,
      "arg_perigee_deg": 299.8182,
      "mean_anomaly_deg": 60.2476,
      "mean_motion_rev_day": 15.70930329
    },
    {
      "epoch": "2026-04-18T14:57:26.156160Z",
      "apogee_km": 357.76947545742314,
      "perigee_km": 354.6205018195369,
      "latitude_deg": 4.1436707557109793e-05,
      "longitude_deg": 91.27170010201563,
      "height_km": 355.85541975461217,
      "semi_major_axis_km": 6734.33198863848,
      "eccentricity": 0.0002338,
      "inclination_deg": 43.001,
      "raan_deg": 162.3702,
      "arg_perigee_deg": 274.1101,
      "mean_anomaly_deg": 85.95,
      "mean_motion_rev_day": 15.70944993
    },
    {
      "epoch": "2026-04-19T19:57:07.007904Z",
      "apogee_km": 357.5278740784306,
      "perigee_km": 354.5432887903389,
      "latitude_deg": 2.8827769915384587e-05,
      "longitude_deg": 7.8783007718501805,
      "height_km": 355.070810192189,
      "semi_major_axis_km": 6734.1725814343845,
      "eccentricity": 0.0002216,
      "inclination_deg": 42.9995,
      "raan_deg": 155.0878,
      "arg_perigee_deg": 60.5488,
      "mean_anomaly_deg": 299.5601,
      "mean_motion_rev_day": 15.71000773
    },
    {
      "epoch": "2026-04-20T11:12:41.327136Z",
      "apogee_km": 357.8081326462834,
      "perigee_km": 354.88334679242234,
      "latitude_deg": 1.5592036254230733e-05,
      "longitude_deg": 134.52610185437683,
      "height_km": 356.24638940126124,
      "semi_major_axis_km": 6734.482739719352,
      "eccentricity": 0.00021715,
      "inclination_deg": 43.0018,
      "raan_deg": 151.2553,
      "arg_perigee_deg": 265.0011,
      "mean_anomaly_deg": 95.0609,
      "mean_motion_rev_day": 15.70892245
    },
    {
      "epoch": "2026-04-21T19:15:27.792864Z",
      "apogee_km": 358.28874762815667,
      "perigee_km": 353.42680340023526,
      "latitude_deg": -5.0569517089346684e-06,
      "longitude_deg": 4.4665770255969806,
      "height_km": 354.54609192972026,
      "semi_major_axis_km": 6733.994775514196,
      "eccentricity": 0.000361,
      "inclination_deg": 42.9983,
      "raan_deg": 143.2055,
      "arg_perigee_deg": 63.6558,
      "mean_anomaly_deg": 296.468,
      "mean_motion_rev_day": 15.71062995
    },
    {
      "epoch": "2026-04-22T18:08:51.075744Z",
      "apogee_km": 357.7724270120243,
      "perigee_km": 355.1917209828689,
      "latitude_deg": 3.857458020238491e-05,
      "longitude_deg": 14.430558481672016,
      "height_km": 355.139399784967,
      "semi_major_axis_km": 6734.619073997446,
      "eccentricity": 0.0001916,
      "inclination_deg": 43.0001,
      "raan_deg": 137.4565,
      "arg_perigee_deg": 30.4005,
      "mean_anomaly_deg": 329.6974,
      "mean_motion_rev_day": 15.70844544
    },
    {
      "epoch": "2026-04-23T12:27:32.864832Z",
      "apogee_km": 357.6198204880966,
      "perigee_km": 354.97709332609793,
      "latitude_deg": 2.3987856716734795e-05,
      "longitude_deg": 94.40608918904755,
      "height_km": 356.2387850075031,
      "semi_major_axis_km": 6734.435456907097,
      "eccentricity": 0.00019621,
      "inclination_deg": 43.0022,
      "raan_deg": 132.8582,
      "arg_perigee_deg": 262.7292,
      "mean_anomaly_deg": 97.3353,
      "mean_motion_rev_day": 15.70908789
    },
    {
      "epoch": "2026-04-24T17:27:11.877120Z",
      "apogee_km": 356.9602526064282,
      "perigee_km": 355.7345764429847,
      "latitude_deg": -6.348318920912176e-05,
      "longitude_deg": 11.02339495172286,
      "height_km": 355.5666190789062,
      "semi_major_axis_km": 6734.484414524706,
      "eccentricity": 9.1e-05,
      "inclination_deg": 42.9996,
      "raan_deg": 125.5789,
      "arg_perigee_deg": 25.8385,
      "mean_anomaly_deg": 334.2527,
      "mean_motion_rev_day": 15.70891659
    },
    {
      "epoch": "2026-04-25T08:42:46.306944Z",
      "apogee_km": 357.831005071278,
      "perigee_km": 354.8839902790951,
      "latitude_deg": 2.2446454396534493e-05,
      "longitude_deg": 137.66854069670916,
      "height_km": 356.57513906167594,
      "semi_major_axis_km": 6734.494497675186,
      "eccentricity": 0.0002188,
      "inclination_deg": 43.0014,
      "raan_deg": 121.7441,
      "arg_perigee_deg": 252.4398,
      "mean_anomaly_deg": 107.6231,
      "mean_motion_rev_day": 15.70888131
    }
  ]
}